{
  "type": "FeatureCollection",
  "features": [
    {
      "type": "Feature",
      "geometry": {
        "type": "Polygon",
        "coordinates": [
          [
            [
              -82.393732,
              27.535488
            ],
            [
              -82.395537,
              27.535562
            ],
            [
              -82.395614,
              27.535567
            ],
            [
              -82.395663,
              27.535588
            ],
            [
              -82.395955,
              27.535594
            ],
            [
              -82.397086,
              27.535616
            ],
            [
              -82.397262,
              27.535613
            ],
            [
              -82.397528,
              27.535635
            ],
            [
              -82.397994,
              27.535641
            ],
            [
              -82.398142,
              27.535626
            ],
            [
              -82.39824,
              27.535589
            ],
            [
              -82.398349,
              27.5355
            ],
            [
              -82.398395,
              27.535443
            ],
            [
              -82.39873,
              27.535045
            ],
            [
              -82.398887,
              27.534843
            ],
            [
              -82.398886,
              27.534832
            ],
            [
              -82.398972,
              27.53475
            ],
            [
              -82.399031,
              27.534711
            ],
            [
              -82.399241,
              27.534631
            ],
            [
              -82.399204,
              27.534587
            ],
            [
              -82.399173,
              27.534458
            ],
            [
              -82.399194,
              27.534325
            ],
            [
              -82.399242,
              27.534252
            ],
            [
              -82.399321,
              27.534187
            ],
            [
              -82.399446,
              27.534124
            ],
            [
              -82.399631,
              27.534102
            ],
            [
              -82.399834,
              27.534122
            ],
            [
              -82.399954,
              27.531479
            ],
            [
              -82.396076,
              27.53142
            ],
            [
              -82.394442,
              27.532585
            ],
            [
              -82.393238,
              27.532886
            ],
            [
              -82.3938,
              27.534575
            ],
            [
              -82.393732,
              27.535488
            ]
          ]
        ]
      },
      "properties": {
        "neighborhood": "Estates at Rivers Edge",
        "stroke": "#3fc3d5",
        "stroke-width": 2,
        "stroke-opacity": 1,
        "fill": "#3fc3d5",
        "fill-opacity": 0.5,
        "new_construction": true
      }
    },
    {
      "type": "Feature",
      "geometry": {
        "type": "Polygon",
        "coordinates": [
          [
            [
              -82.373425,
              27.561946
            ],
            [
              -82.369654,
              27.558654
            ],
            [
              -82.3673,
              27.560662
            ],
            [
              -82.366228,
              27.561037
            ],
            [
              -82.365568,
              27.563735
            ],
            [
              -82.364555,
              27.564492
            ],
            [
              -82.364007,
              27.566076
            ],
            [
              -82.361752,
              27.567881
            ],
            [
              -82.361093,
              27.568598
            ],
            [
              -82.35947,
              27.56849
            ],
            [
              -82.359936,
              27.570107
            ],
            [
              -82.360431,
              27.573644
            ],
            [
              -82.359563,
              27.574147
            ],
            [
              -82.358856,
              27.575083
            ],
            [
              -82.360623,
              27.576524
            ],
            [
              -82.367991,
              27.577303
            ],
            [
              -82.368075,
              27.571373
            ],
            [
              -82.372072,
              27.563221
            ],
            [
              -82.373425,
              27.561946
            ]
          ]
        ]
      },
      "properties": {
        "neighborhood": "Riversong",
        "stroke": "#39c690",
        "stroke-width": 2,
        "stroke-opacity": 1,
        "fill": "#40c48b",
        "fill-opacity": 0.5,
        "new_construction": true,
        "price_range": "$300,000 - $600,000"
      }
    }
  ]
}
